{
  "type": "FeatureCollection",
  "features": [
    {
      "type": "Feature",
      "properties": {
        "norad_id": 28054,
        "name": "DMSP 5D-3 F16 (USA 172)",
        "group": "weather",
        "lat": 70.83470510616193,
        "lon": -159.02543327780205,
        "alt_km": 839.5108172123437,
        "timestamp": "2025-12-02T10:50:46.914987+00:00",
        "meta_object_name": "DMSP 5D-3 F16 (USA 172)",
        "meta_object_id": "2003-048A",
        "meta_epoch": "2025-12-02T03:57:48.176352",
        "meta_mean_motion": 14.14418018,
        "meta_eccentricity": 0.0006944,
        "meta_inclination": 99.0054,
        "meta_ra_of_asc_node": 353.5386,
        "meta_arg_of_pericenter": 352.9295,
        "meta_mean_anomaly": 94.4518,
        "meta_ephemeris_type": 0,
        "meta_classification_type": "U",
        "meta_norad_cat_id": 28054,
        "meta_element_set_no": 999,
        "meta_rev_at_epoch": 14163,
        "meta_bstar": 0.00011684,
        "meta_mean_motion_dot": 1.78e-06,
        "meta_mean_motion_ddot": 0,
        "tle_line1": "1 28054U 03048A   25336.16514093  .00000178  00000+0  11684-3 0  9990",
        "tle_line2": "2 28054  99.0054 353.5386 0006944 352.9295  94.4518 14.14418018141637"
      },
      "geometry": {
        "type": "Point",
        "coordinates": [
          -159.02543327780205,
          70.83470510616193
        ]
      }
    },
    {
      "type": "Feature",
      "properties": {
        "norad_id": 28912,
        "name": "METEOSAT-9 (MSG-2)",
        "group": "weather",
        "lat": -6.174082429745683,
        "lon": -80.48136381892213,
        "alt_km": 35774.0653380072,
        "timestamp": "2025-12-02T10:50:46.915054+00:00",
        "meta_object_name": "METEOSAT-9 (MSG-2)",
        "meta_object_id": "2005-049B",
        "meta_epoch": "2025-12-01T20:52:41.183040",
        "meta_mean_motion": 1.0027085,
        "meta_eccentricity": 0.0003963,
        "meta_inclination": 8.9132,
        "meta_ra_of_asc_node": 56.0736,
        "meta_arg_of_pericenter": 184.5981,
        "meta_mean_anomaly": 189.0848,
        "meta_ephemeris_type": 0,
        "meta_classification_type": "U",
        "meta_norad_cat_id": 28912,
        "meta_element_set_no": 999,
        "meta_rev_at_epoch": 502,
        "meta_bstar": 0,
        "meta_mean_motion_dot": 1.42e-06,
        "meta_mean_motion_ddot": 0,
        "tle_line1": "1 28912U 05049B   25335.86992110  .00000142  00000+0  00000+0 0  9999",
        "tle_line2": "2 28912   8.9132  56.0736 0003963 184.5981 189.0848  1.00270850  5029"
      },
      "geometry": {
        "type": "Point",
        "coordinates": [
          -80.48136381892213,
          -6.174082429745683
        ]
      }
    },
    {
      "type": "Feature",
      "properties": {
        "norad_id": 29522,
        "name": "DMSP 5D-3 F17 (USA 191)",
        "group": "weather",
        "lat": 28.803656361979062,
        "lon": -22.79661486604729,
        "alt_km": 845.6292013919074,
        "timestamp": "2025-12-02T10:50:46.915074+00:00",
        "meta_object_name": "DMSP 5D-3 F17 (USA 191)",
        "meta_object_id": "2006-050A",
        "meta_epoch": "2025-12-02T03:55:12.451584",
        "meta_mean_motion": 14.14912102,
        "meta_eccentricity": 0.0009136,
        "meta_inclination": 98.7395,
        "meta_ra_of_asc_node": 341.7726,
        "meta_arg_of_pericenter": 257.9625,
        "meta_mean_anomaly": 102.0525,
        "meta_ephemeris_type": 0,
        "meta_classification_type": "U",
        "meta_norad_cat_id": 29522,
        "meta_element_set_no": 999,
        "meta_rev_at_epoch": 98455,
        "meta_bstar": 0.00013665,
        "meta_mean_motion_dot": 2.21e-06,
        "meta_mean_motion_ddot": 0,
        "tle_line1": "1 29522U 06050A   25336.16333856  .00000221  00000+0  13665-3 0  9993",
        "tle_line2": "2 29522  98.7395 341.7726 0009136 257.9625 102.0525 14.14912102984559"
      },
      "geometry": {
        "type": "Point",
        "coordinates": [
          -22.79661486604729,
          28.803656361979062
        ]
      }
    },
    {
      "type": "Feature",
      "properties": {
        "norad_id": 32958,
        "name": "FENGYUN 3A",
        "group": "weather",
        "lat": -65.35416821501344,
        "lon": -64.38354048276307,
        "alt_km": 830.218869288713,
        "timestamp": "2025-12-02T10:50:46.915090+00:00",
        "meta_object_name": "FENGYUN 3A",
        "meta_object_id": "2008-026A",
        "meta_epoch": "2025-12-02T02:42:06.850656",
        "meta_mean_motion": 14.19508922,
        "meta_eccentricity": 0.0008417,
        "meta_inclination": 98.6682,
        "meta_ra_of_asc_node": 275.864,
        "meta_arg_of_pericenter": 343.0691,
        "meta_mean_anomaly": 17.0203,
        "meta_ephemeris_type": 0,
        "meta_classification_type": "U",
        "meta_norad_cat_id": 32958,
        "meta_element_set_no": 999,
        "meta_rev_at_epoch": 90744,
        "meta_bstar": 8.5569e-05,
        "meta_mean_motion_dot": 1.37e-06,
        "meta_mean_motion_ddot": 0,
        "tle_line1": "1 32958U 08026A   25336.11257929  .00000137  00000+0  85569-4 0  9995",
        "tle_line2": "2 32958  98.6682 275.8640 0008417 343.0691  17.0203 14.19508922907444"
      },
      "geometry": {
        "type": "Point",
        "coordinates": [
          -64.38354048276307,
          -65.35416821501344
        ]
      }
    },
    {
      "type": "Feature",
      "properties": {
        "norad_id": 35491,
        "name": "GOES 14",
        "group": "weather",
        "lat": 0.7604749171951463,
        "lon": 125.83198785071599,
        "alt_km": 35791.43660958593,
        "timestamp": "2025-12-02T10:50:46.915107+00:00",
        "meta_object_name": "GOES 14",
        "meta_object_id": "2009-033A",
        "meta_epoch": "2025-12-02T02:59:47.491008",
        "meta_mean_motion": 1.00272662,
        "meta_eccentricity": 0.000414,
        "meta_inclination": 1.1693,
        "meta_ra_of_asc_node": 85.5322,
        "meta_arg_of_pericenter": 149.1671,
        "meta_mean_anomaly": 133.1394,
        "meta_ephemeris_type": 0,
        "meta_classification_type": "U",
        "meta_norad_cat_id": 35491,
        "meta_element_set_no": 999,
        "meta_rev_at_epoch": 461,
        "meta_bstar": 0,
        "meta_mean_motion_dot": -4.7e-07,
        "meta_mean_motion_ddot": 0,
        "tle_line1": "1 35491U 09033A   25336.12485522 -.00000047  00000+0  00000+0 0  9995",
        "tle_line2": "2 35491   1.1693  85.5322 0004140 149.1671 133.1394  1.00272662  4618"
      },
      "geometry": {
        "type": "Point",
        "coordinates": [
          125.83198785071599,
          0.7604749171951463
        ]
      }
    },
    {
      "type": "Feature",
      "properties": {
        "norad_id": 35951,
        "name": "DMSP 5D-3 F18 (USA 210)",
        "group": "weather",
        "lat": -78.13811998762472,
        "lon": 84.78727940876544,
        "alt_km": 859.1125578735873,
        "timestamp": "2025-12-02T10:50:46.915121+00:00",
        "meta_object_name": "DMSP 5D-3 F18 (USA 210)",
        "meta_object_id": "2009-057A",
        "meta_epoch": "2025-12-02T04:31:11.534016",
        "meta_mean_motion": 14.14759126,
        "meta_eccentricity": 0.0012104,
        "meta_inclination": 98.8822,
        "meta_ra_of_asc_node": 312.6425,
        "meta_arg_of_pericenter": 90.1662,
        "meta_mean_anomaly": 270.0898,
        "meta_ephemeris_type": 0,
        "meta_classification_type": "U",
        "meta_norad_cat_id": 35951,
        "meta_element_set_no": 999,
        "meta_rev_at_epoch": 83173,
        "meta_bstar": 0.00017967,
        "meta_mean_motion_dot": 3.02e-06,
        "meta_mean_motion_ddot": 0,
        "tle_line1": "1 35951U 09057A   25336.18832794  .00000302  00000+0  17967-3 0  9992",
        "tle_line2": "2 35951  98.8822 312.6425 0012104  90.1662 270.0898 14.14759126831733"
      },
      "geometry": {
        "type": "Point",
        "coordinates": [
          84.78727940876544,
          -78.13811998762472
        ]
      }
    },
    {
      "type": "Feature",
      "properties": {
        "norad_id": 36411,
        "name": "EWS-G2 (GOES 15)",
        "group": "weather",
        "lat": -0.39722710015337376,
        "lon": -64.21928381256416,
        "alt_km": 35768.276160833426,
        "timestamp": "2025-12-02T10:50:46.915136+00:00",
        "meta_object_name": "EWS-G2 (GOES 15)",
        "meta_object_id": "2010-008A",
        "meta_epoch": "2025-12-02T03:48:18.110016",
        "meta_mean_motion": 1.00267539,
        "meta_eccentricity": 0.0005903,
        "meta_inclination": 0.7853,
        "meta_ra_of_asc_node": 86.0559,
        "meta_arg_of_pericenter": 169.3361,
        "meta_mean_anomaly": 294.4691,
        "meta_ephemeris_type": 0,
        "meta_classification_type": "U",
        "meta_norad_cat_id": 36411,
        "meta_element_set_no": 999,
        "meta_rev_at_epoch": 5766,
        "meta_bstar": 0,
        "meta_mean_motion_dot": 5.8e-07,
        "meta_mean_motion_ddot": 0,
        "tle_line1": "1 36411U 10008A   25336.15854294  .00000058  00000+0  00000+0 0  9992",
        "tle_line2": "2 36411   0.7853  86.0559 0005903 169.3361 294.4691  1.00267539 57661"
      },
      "geometry": {
        "type": "Point",
        "coordinates": [
          -64.21928381256416,
          -0.39722710015337376
        ]
      }
    }
  ]
}